NAVSTAR 77 (USA 289)    
1 43873U 18109A   24195.27271678 -.00000001  00000+0  00000+0 0  9995
2 43873  55.3062 119.9978 0029323 194.3832 349.4740  2.00557357 40954
